STARLINK-2013
1 17636C 21012S   21326.14081428 -.00017572  00000-0 -11766-2 0  3265
2 17636  53.0536 253.0934 0007155  48.8497 265.0135 15.06418480    14
